{
  "norad_id": 68425,
  "name": "ERMIS-3",
  "history": [
    {
      "epoch": "2026-04-14T00:03:09.683424Z",
      "apogee_km": 512.839443259948,
      "perigee_km": 509.9251765918498,
      "latitude_deg": 1.591062893169725e-05,
      "longitude_deg": -139.53112721980742,
      "height_km": 515.5190960548298,
      "semi_major_axis_km": 6889.519309925899,
      "eccentricity": 0.0002115,
      "inclination_deg": 97.4536,
      "raan_deg": 63.4441,
      "arg_perigee_deg": 136.2398,
      "mean_anomaly_deg": 223.9004,
      "mean_motion_rev_day": 15.18166414
    },
    {
      "epoch": "2026-04-16T20:04:20.905248Z",
      "apogee_km": 512.9772773176883,
      "perigee_km": 509.68824445384143,
      "latitude_deg": 1.328364318906572e-05,
      "longitude_deg": -79.82875265031862,
      "height_km": 515.5078543839737,
      "semi_major_axis_km": 6889.469760885765,
      "eccentricity": 0.0002387,
      "inclination_deg": 97.4544,
      "raan_deg": 66.2367,
      "arg_perigee_deg": 131.5727,
      "mean_anomaly_deg": 228.5712,
      "mean_motion_rev_day": 15.18182792
    },
    {
      "epoch": "2026-04-17T19:48:00.507168Z",
      "apogee_km": 512.9821391037412,
      "perigee_km": 509.6461290755924,
      "latitude_deg": 3.336817620074872e-05,
      "longitude_deg": -75.74392266566858,
      "height_km": 515.4849341909361,
      "semi_major_axis_km": 6889.451134089666,
      "eccentricity": 0.00024211,
      "inclination_deg": 97.4547,
      "raan_deg": 67.211,
      "arg_perigee_deg": 130.6704,
      "mean_anomaly_deg": 229.4741,
      "mean_motion_rev_day": 15.18188949
    },
    {
      "epoch": "2026-04-20T20:33:51.150528Z",
      "apogee_km": 513.067194113286,
      "perigee_km": 509.4185785254913,
      "latitude_deg": 1.4075095009365096e-05,
      "longitude_deg": -87.20535118463296,
      "height_km": 515.3973789556062,
      "semi_major_axis_km": 6889.379886319388,
      "eccentricity": 0.0002648,
      "inclination_deg": 97.4554,
      "raan_deg": 70.1989,
      "arg_perigee_deg": 125.96,
      "mean_anomaly_deg": 234.188,
      "mean_motion_rev_day": 15.182125
    },
    {
      "epoch": "2026-04-22T20:01:06.201120Z",
      "apogee_km": 513.1193877545556,
      "perigee_km": 509.2668743452723,
      "latitude_deg": 2.1063483382982572e-05,
      "longitude_deg": -79.01844180774647,
      "height_km": 515.3267298473704,
      "semi_major_axis_km": 6889.330131049914,
      "eccentricity": 0.0002796,
      "inclination_deg": 97.4553,
      "raan_deg": 72.1474,
      "arg_perigee_deg": 123.0568,
      "mean_anomaly_deg": 237.0935,
      "mean_motion_rev_day": 15.18228947
    },
    {
      "epoch": "2026-04-22T20:01:06.201984Z",
      "apogee_km": 513.1192499679528,
      "perigee_km": 509.26701213187516,
      "latitude_deg": 2.2996259432671812e-05,
      "longitude_deg": -79.01844566912784,
      "height_km": 515.3266546695473,
      "semi_major_axis_km": 6889.330131049914,
      "eccentricity": 0.00027958,
      "inclination_deg": 97.4553,
      "raan_deg": 72.1474,
      "arg_perigee_deg": 123.0568,
      "mean_anomaly_deg": 237.0935,
      "mean_motion_rev_day": 15.18228947
    },
    {
      "epoch": "2026-04-24T08:23:58.368768Z",
      "apogee_km": 513.1444280421838,
      "perigee_km": 509.15828579886966,
      "latitude_deg": 9.101955663442752e-05,
      "longitude_deg": 95.26386033865047,
      "height_km": 515.2638308641623,
      "semi_major_axis_km": 6889.288356920527,
      "eccentricity": 0.0002893,
      "inclination_deg": 97.4551,
      "raan_deg": 73.6412,
      "arg_perigee_deg": 121.1113,
      "mean_anomaly_deg": 239.0406,
      "mean_motion_rev_day": 15.18242756
    },
    {
      "epoch": "2026-04-25T12:52:17.445792Z",
      "apogee_km": 513.1402841088684,
      "perigee_km": 509.0852716895979,
      "latitude_deg": -7.705776221542336e-06,
      "longitude_deg": 28.183982881371723,
      "height_km": 515.1796961263673,
      "semi_major_axis_km": 6889.249777899233,
      "eccentricity": 0.0002943,
      "inclination_deg": 97.455,
      "raan_deg": 74.8101,
      "arg_perigee_deg": 119.0473,
      "mean_anomaly_deg": 241.1056,
      "mean_motion_rev_day": 15.18255509
    },
    {
      "epoch": "2026-04-25T12:52:17.446656Z",
      "apogee_km": 513.1406285713583,
      "perigee_km": 509.0849272271089,
      "latitude_deg": -1.2712675282807482e-05,
      "longitude_deg": 28.183979923079672,
      "height_km": 515.1798634128263,
      "semi_major_axis_km": 6889.249777899233,
      "eccentricity": 0.00029435,
      "inclination_deg": 97.455,
      "raan_deg": 74.8101,
      "arg_perigee_deg": 119.0473,
      "mean_anomaly_deg": 241.1056,
      "mean_motion_rev_day": 15.18255509
    },
    {
      "epoch": "2026-04-27T20:13:58.568736Z",
      "apogee_km": 513.1502184994688,
      "perigee_km": 508.8982281924191,
      "latitude_deg": 2.465435728472284e-05,
      "longitude_deg": -82.23757856323914,
      "height_km": 515.0425893691505,
      "semi_major_axis_km": 6889.161223345944,
      "eccentricity": 0.0003086,
      "inclination_deg": 97.455,
      "raan_deg": 77.0835,
      "arg_perigee_deg": 116.127,
      "mean_anomaly_deg": 244.0282,
      "mean_motion_rev_day": 15.18284783
    },
    {
      "epoch": "2026-04-28T19:57:32.253120Z",
      "apogee_km": 513.1500125729544,
      "perigee_km": 508.83466195609253,
      "latitude_deg": -5.8822849147071126e-05,
      "longitude_deg": -78.12781174054085,
      "height_km": 514.9723997476489,
      "semi_major_axis_km": 6889.129337264523,
      "eccentricity": 0.0003132,
      "inclination_deg": 97.4553,
      "raan_deg": 78.058,
      "arg_perigee_deg": 114.5953,
      "mean_anomaly_deg": 245.5607,
      "mean_motion_rev_day": 15.18295324
    }
  ]
}